{
  "type": "FeatureCollection",
  "features": [
    {
      "type": "Feature",
      "properties": {
        "norad_id": 43719,
        "name": "HYSIS",
        "group": "resource",
        "lat": 45.53848573733188,
        "lon": 31.07588828630599,
        "alt_km": 628.703398366998,
        "timestamp": "2025-12-02T07:10:08.766991+00:00",
        "meta_object_name": "HYSIS",
        "meta_object_id": "2018-096A",
        "meta_epoch": "2025-12-01T19:35:32.068896",
        "meta_mean_motion": 14.78592983,
        "meta_eccentricity": 0.0001764,
        "meta_inclination": 98.0112,
        "meta_ra_of_asc_node": 38.8467,
        "meta_arg_of_pericenter": 70.0435,
        "meta_mean_anomaly": 290.0966,
        "meta_ephemeris_type": 0,
        "meta_classification_type": "U",
        "meta_norad_cat_id": 43719,
        "meta_element_set_no": 999,
        "meta_rev_at_epoch": 37825,
        "meta_bstar": 1.9573e-05,
        "meta_mean_motion_dot": 9.1e-07,
        "meta_mean_motion_ddot": 0,
        "tle_line1": "1 43719U 18096A   25335.81634339  .00000091  00000+0  19573-4 0  9991",
        "tle_line2": "2 43719  98.0112  38.8467 0001764  70.0435 290.0966 14.78592983378253"
      },
      "geometry": {
        "type": "Point",
        "coordinates": [
          31.07588828630599,
          45.53848573733188
        ]
      }
    },
    {
      "type": "Feature",
      "properties": {
        "norad_id": 43783,
        "name": "KAZSTSAT",
        "group": "resource",
        "lat": -45.34124121681141,
        "lon": -175.6822331094423,
        "alt_km": 579.5090644139727,
        "timestamp": "2025-12-02T07:10:08.767002+00:00",
        "meta_object_name": "KAZSTSAT",
        "meta_object_id": "2018-099AB",
        "meta_epoch": "2025-12-01T15:44:57.223104",
        "meta_mean_motion": 14.99289157,
        "meta_eccentricity": 0.0006646,
        "meta_inclination": 97.4552,
        "meta_ra_of_asc_node": 11.3179,
        "meta_arg_of_pericenter": 10.0412,
        "meta_mean_anomaly": 350.0943,
        "meta_ephemeris_type": 0,
        "meta_classification_type": "U",
        "meta_norad_cat_id": 43783,
        "meta_element_set_no": 999,
        "meta_rev_at_epoch": 38170,
        "meta_bstar": 0.00019547,
        "meta_mean_motion_dot": 2.331e-05,
        "meta_mean_motion_ddot": 0,
        "tle_line1": "1 43783U 18099AB  25335.65621786  .00002331  00000+0  19547-3 0  9998",
        "tle_line2": "2 43783  97.4552  11.3179 0006646  10.0412 350.0943 14.99289157381709"
      },
      "geometry": {
        "type": "Point",
        "coordinates": [
          -175.6822331094423,
          -45.34124121681141
        ]
      }
    },
    {
      "type": "Feature",
      "properties": {
        "norad_id": 43831,
        "name": "SAUDISAT 5A",
        "group": "resource",
        "lat": 13.767216010405114,
        "lon": 34.88299762314519,
        "alt_km": 491.13478199169185,
        "timestamp": "2025-12-02T07:10:08.767014+00:00",
        "meta_object_name": "SAUDISAT 5A",
        "meta_object_id": "2018-102A",
        "meta_epoch": "2025-12-01T20:05:17.238912",
        "meta_mean_motion": 15.25442126,
        "meta_eccentricity": 0.0011759,
        "meta_inclination": 97.3377,
        "meta_ra_of_asc_node": 36.2395,
        "meta_arg_of_pericenter": 109.6558,
        "meta_mean_anomaly": 250.595,
        "meta_ephemeris_type": 0,
        "meta_classification_type": "U",
        "meta_norad_cat_id": 43831,
        "meta_element_set_no": 999,
        "meta_rev_at_epoch": 38556,
        "meta_bstar": 0.00027644,
        "meta_mean_motion_dot": 6.932e-05,
        "meta_mean_motion_ddot": 0,
        "tle_line1": "1 43831U 18102A   25335.83700508  .00006932  00000+0  27644-3 0  9995",
        "tle_line2": "2 43831  97.3377  36.2395 0011759 109.6558 250.5950 15.25442126385567"
      },
      "geometry": {
        "type": "Point",
        "coordinates": [
          34.88299762314519,
          13.767216010405114
        ]
      }
    },
    {
      "type": "Feature",
      "properties": {
        "norad_id": 43833,
        "name": "SAUDISAT 5B",
        "group": "resource",
        "lat": 52.2323232572696,
        "lon": 29.825690135777506,
        "alt_km": 478.9898237990401,
        "timestamp": "2025-12-02T07:10:08.767025+00:00",
        "meta_object_name": "SAUDISAT 5B",
        "meta_object_id": "2018-102C",
        "meta_epoch": "2025-12-01T19:55:14.350080",
        "meta_mean_motion": 15.25800396,
        "meta_eccentricity": 0.0012426,
        "meta_inclination": 97.347,
        "meta_ra_of_asc_node": 38.9516,
        "meta_arg_of_pericenter": 112.3296,
        "meta_mean_anomaly": 247.9261,
        "meta_ephemeris_type": 0,
        "meta_classification_type": "U",
        "meta_norad_cat_id": 43833,
        "meta_element_set_no": 999,
        "meta_rev_at_epoch": 38567,
        "meta_bstar": 0.00025176,
        "meta_mean_motion_dot": 6.377e-05,
        "meta_mean_motion_ddot": 0,
        "tle_line1": "1 43833U 18102C   25335.83002720  .00006377  00000+0  25176-3 0  9999",
        "tle_line2": "2 43833  97.3470  38.9516 0012426 112.3296 247.9261 15.25800396385673"
      },
      "geometry": {
        "type": "Point",
        "coordinates": [
          29.825690135777506,
          52.2323232572696
        ]
      }
    },
    {
      "type": "Feature",
      "properties": {
        "norad_id": 44622,
        "name": "GAOFEN-10R",
        "group": "resource",
        "lat": 4.588371447457912,
        "lon": 104.41431878000974,
        "alt_km": 624.6456426858722,
        "timestamp": "2025-12-02T07:10:08.767035+00:00",
        "meta_object_name": "GAOFEN-10R",
        "meta_object_id": "2019-066A",
        "meta_epoch": "2025-12-01T20:39:51.518016",
        "meta_mean_motion": 14.82728449,
        "meta_eccentricity": 0.0008312,
        "meta_inclination": 98.0258,
        "meta_ra_of_asc_node": 283.3263,
        "meta_arg_of_pericenter": 71.4442,
        "meta_mean_anomaly": 288.7673,
        "meta_ephemeris_type": 0,
        "meta_classification_type": "U",
        "meta_norad_cat_id": 44622,
        "meta_element_set_no": 999,
        "meta_rev_at_epoch": 33313,
        "meta_bstar": 0.00024817,
        "meta_mean_motion_dot": 1.95e-05,
        "meta_mean_motion_ddot": 0,
        "tle_line1": "1 44622U 19066A   25335.86101294  .00001950  00000+0  24817-3 0  9998",
        "tle_line2": "2 44622  98.0258 283.3263 0008312  71.4442 288.7673 14.82728449333138"
      },
      "geometry": {
        "type": "Point",
        "coordinates": [
          104.41431878000974,
          4.588371447457912
        ]
      }
    },
    {
      "type": "Feature",
      "properties": {
        "norad_id": 44804,
        "name": "CARTOSAT-3",
        "group": "resource",
        "lat": 47.52587607691496,
        "lon": 27.783835058391958,
        "alt_km": 500.95514020828705,
        "timestamp": "2025-12-02T07:10:08.767046+00:00",
        "meta_object_name": "CARTOSAT-3",
        "meta_object_id": "2019-081A",
        "meta_epoch": "2025-11-28T19:10:32.696256",
        "meta_mean_motion": 15.19179285,
        "meta_eccentricity": 0.00136919,
        "meta_inclination": 97.4604,
        "meta_ra_of_asc_node": 32.557,
        "meta_arg_of_pericenter": 130.907,
        "meta_mean_anomaly": 229.3352,
        "meta_ephemeris_type": 0,
        "meta_classification_type": "U",
        "meta_norad_cat_id": 44804,
        "meta_element_set_no": 999,
        "meta_rev_at_epoch": 33304,
        "meta_bstar": 0.00011293309,
        "meta_mean_motion_dot": 2.312e-05,
        "meta_mean_motion_ddot": 0,
        "tle_line1": "1 44804U 19081A   25332.79898954  .00002312  00000+0  11293-3 0  9999",
        "tle_line2": "2 44804  97.4604  32.5570 0013691 130.9070 229.3352 15.19179285333041"
      },
      "geometry": {
        "type": "Point",
        "coordinates": [
          27.783835058391958,
          47.52587607691496
        ]
      }
    },
    {
      "type": "Feature",
      "properties": {
        "norad_id": 44819,
        "name": "GAOFEN-12 01",
        "group": "resource",
        "lat": 17.954633033124995,
        "lon": 165.40390319710053,
        "alt_km": 628.5025909427895,
        "timestamp": "2025-12-02T07:10:08.767056+00:00",
        "meta_object_name": "GAOFEN-12 01",
        "meta_object_id": "2019-082A",
        "meta_epoch": "2025-12-01T20:42:33.422976",
        "meta_mean_motion": 14.80636062,
        "meta_eccentricity": 0.0001338,
        "meta_inclination": 97.8129,
        "meta_ra_of_asc_node": 342.4294,
        "meta_arg_of_pericenter": 308.0343,
        "meta_mean_anomaly": 52.0749,
        "meta_ephemeris_type": 0,
        "meta_classification_type": "U",
        "meta_norad_cat_id": 44819,
        "meta_element_set_no": 999,
        "meta_rev_at_epoch": 32489,
        "meta_bstar": 8.1972e-05,
        "meta_mean_motion_dot": 5.79e-06,
        "meta_mean_motion_ddot": 0,
        "tle_line1": "1 44819U 19082A   25335.86288684  .00000579  00000+0  81972-4 0  9995",
        "tle_line2": "2 44819  97.8129 342.4294 0001338 308.0343  52.0749 14.80636062324897"
      },
      "geometry": {
        "type": "Point",
        "coordinates": [
          165.40390319710053,
          17.954633033124995
        ]
      }
    }
  ]
}